OBJECT_NAME,OBJECT_ID,EPOCH,MEAN_MOTION,ECCENTRICITY,INCLINATION,RA_OF_ASC_NODE,ARG_OF_PERICENTER,MEAN_ANOMALY,EPHEMERIS_TYPE,CLASSIFICATION_TYPE,NORAD_CAT_ID,ELEMENT_SET_NO,REV_AT_EPOCH,BSTAR,MEAN_MOTION_DOT,MEAN_MOTION_DDOT
LEMUR-2-ROUNDTRIPPER,2025-009DG,2026-07-11T04:16:35.526144,15.04189188,.0004386,97.7243,274.8263,72.6787,287.4918,0,U,62711,999,8123,.41354E-3,.5683E-4,0
LEMUR-2-MYNAMEISJEFF,2025-009DH,2026-07-10T01:05:53.473920,15.04168528,.0003672,97.7289,274.0900,109.4233,250.7389,0,U,62712,999,8106,.48907697E-3,.6729E-4,0
LEMUR-2-LEIA-PHILIP,2025-052AN,2026-07-10T12:37:05.276064,14.97385737,.0005042,97.6815,83.0813,130.3106,229.8557,0,U,63246,999,7216,.10603E-3,.1175E-4,0
LEMUR-2-LIA-MARTIN,2025-052AQ,2026-07-10T02:54:56.409408,14.98002545,.00054137,97.6875,83.1935,102.3403,257.8426,0,U,63248,999,7211,.32409936E-3,.377E-4,0
LEMUR-2-DELOITTE-1,2025-052BB,2026-07-08T16:45:18.552960,14.97751965,.00023088,97.6884,82.1233,66.8273,293.3192,0,U,63259,999,7191,.20556086E-3,.2354E-4,0
LEMUR-2-EMERSONROSE,2025-052BD,2026-07-11T04:31:05.155104,14.99267533,.0002799,97.6884,85.1791,66.9250,293.2268,0,U,63261,999,7233,.26193E-3,.3137E-4,0
LEMUR-2-MARACHE-FRAN,2025-052BE,2026-07-11T03:31:41.835072,15.00300181,.0004773,97.6854,85.5010,270.6525,89.4152,0,U,63262,999,7235,.1719E-3,.2095E-4,0
LEMUR-2-THEFALCONER,2025-052BG,2026-07-11T03:11:39.313824,14.97553031,.0000537,97.6851,84.1157,13.5490,346.5747,0,U,63264,999,7227,.1428E-3,.1609E-4,0
LEMUR-2-UNTITLED-SC,2025-061A,2026-07-10T08:38:26.976480,15.13626636,.00186925,97.5647,166.5561,179.4862,180.6392,0,U,63351,999,7109,.13281982E-3,.2328E-4,0
LEMUR-2-ESPERANZA,2025-061B,2026-07-10T19:09:44.942112,15.13735969,.0018349,97.5654,167.0906,177.2231,182.9105,0,U,63352,999,7116,.12142E-3,.2129E-4,0
LEMUR-2-KREMPEL-BRO2,2025-061C,2026-07-10T08:32:42.490176,15.14158603,.00194849,97.5701,167.2141,171.4566,188.7001,0,U,63353,999,7111,.14248101E-3,.2542E-4,0
LEMUR-2-THERMORAPTOR,2025-061D,2026-07-10T14:25:43.406112,15.14243165,.001929,97.5705,167.5381,169.5482,190.6154,0,U,63354,999,7115,.13515E-3,.2413E-4,0
LEMUR-2-NEUROSPICY,2025-061E,2026-07-11T03:58:41.314080,15.14363313,.0017063,97.5634,167.7074,170.3535,189.8028,0,U,63355,999,7124,.12232E-3,.2183E-4,0
LEMUR-2-TILLINFINITY,2025-061F,2026-07-10T22:15:42.600096,15.14946384,.0018631,97.5619,167.7778,160.0499,200.1466,0,U,63356,999,7123,.11629E-3,.2109E-4,0
LEMUR-2-KREMPEL-BRO1,2025-061G,2026-07-11T04:02:22.833312,15.14754543,.001924,97.5620,167.9265,160.5159,199.6813,0,U,63357,999,7126,.11831E-3,.2135E-4,0
LEMUR-2-LANGER2SPACE,2025-061H,2026-07-10T11:20:53.008800,15.14445813,.0016942,97.5624,167.0395,171.1205,189.0330,0,U,63358,999,7114,.14175E-3,.2547E-4,0
LEMUR-2-KRISH,2025-135AK,2026-07-10T06:41:55.319136,14.96425392,.00017013,97.7764,306.0004,98.2728,261.8686,0,U,64561,999,5737,.32232974E-3,.3597E-4,0
LEMUR-2-HUBBLE-4,2025-135AP,2026-07-10T22:05:57.888960,14.93676883,.0002332,97.7715,305.5505,174.2910,185.8336,0,U,64565,999,5741,.10388E-3,.1041E-4,0
LEMUR-2-SEJONG-2,2025-135BL,2026-07-11T04:05:45.669408,14.96892886,.000363,97.7702,307.0323,237.6312,122.4558,0,U,64586,999,5753,.17639E-3,.1965E-4,0
LEMUR-2-HUBBLE-5,2025-135BT,2026-07-09T06:10:03.711360,14.94201118,.00041158,97.7734,304.5681,260.6132,99.4623,0,U,64840,999,5720,.13039501E-3,.134E-4,0
LEMUR-2-KARENDARRELL,2025-135BU,2026-07-08T20:40:04.897056,15.00440878,.00117501,97.7693,306.0385,124.4354,235.7982,0,U,64841,999,5726,.37563629E-3,.4672E-4,0
LEMUR-2-LUCILLE-ROSE,2025-135BV,2026-07-10T13:38:37.260384,15.00454746,.0014275,97.7711,307.7797,203.3364,156.7213,0,U,65403,999,5214,.34557E-3,.4297E-4,0
LEMUR-2-AFFIE-WAUWIE,2025-248C,2026-07-10T11:11:57.238080,15.28120694,.00085929,45.3904,348.7732,227.3081,132.7085,0,U,66295,999,3815,.55346916E-3,.15199E-3,0
OTTER SDM,2025-276N,2026-07-11T03:32:29.395680,15.20026828,.0004225,97.4208,265.2283,273.2415,86.8336,0,U,66678,999,3405,.19839E-3,.4209E-4,0
LEMUR-2-STAS-GORBUK,2025-276W,2026-07-10T12:13:37.749216,15.19628304,.0003441,97.4241,264.6532,272.2364,87.8477,0,U,66686,999,3395,.16544E-3,.3457E-4,0
LEMUR-2-TEODOR,2025-276DG,2026-07-10T03:19:48.442368,15.21303330,.00023006,97.4142,264.5538,92.7088,267.4411,0,U,66768,999,3393,.18578518E-3,.4087E-4,0
LEMUR-2-LAILA,2025-276DQ,2026-07-08T17:28:38.742816,15.21517643,.00028988,97.4166,263.2996,104.2252,255.9306,0,U,66776,999,3372,.17456123E-3,.386E-4,0
LEMUR-2-CELIJO-SB-PK,2025-276DW,2026-07-08T17:10:02.402976,15.00241883,.00073369,97.5199,259.7831,80.2189,279.9863,0,U,66781,999,2585,.32737877E-3,.4042E-4,0
LEMUR-2-FINNIAN,2025-276DX,2026-07-10T21:18:04.447872,15.00584478,.0008491,97.5322,262.1409,17.3643,342.7870,0,U,66782,999,2355,.14533E-3,.1778E-4,0
